OBJECT_NAME,OBJECT_ID,EPOCH,MEAN_MOTION,ECCENTRICITY,INCLINATION,RA_OF_ASC_NODE,ARG_OF_PERICENTER,MEAN_ANOMALY,EPHEMERIS_TYPE,CLASSIFICATION_TYPE,NORAD_CAT_ID,ELEMENT_SET_NO,REV_AT_EPOCH,BSTAR,MEAN_MOTION_DOT,MEAN_MOTION_DDOT
STARLINK-30473,2023-146C,2025-05-08T11:10:58.498176,15.02537789,.0001246,43.0015,171.7080,318.0749,41.9998,0,U,57893,999,9115,.96967E-4,.1107E-4,0
STARLINK-30443,2023-146D,2025-05-08T09:59:13.905888,15.02521602,.0001198,43.0021,172.2473,268.7293,91.3412,0,U,57894,999,9114,.13723E-3,.165E-4,0
STARLINK-30467,2023-146E,2025-05-08T10:04:01.622208,15.02534286,.0001249,43.0019,172.2713,268.9224,91.1475,0,U,57895,999,9114,-.24344E-4,-.532E-5,0
STARLINK-30469,2023-146F,2025-05-09T03:27:26.387424,15.02535646,.0001435,43.0023,168.2502,283.9630,76.1053,0,U,57896,999,9120,.10259E-3,.1182E-4,0
STARLINK-30474,2023-146G,2025-05-08T14:33:37.532160,15.02536228,.0001387,43.0026,171.0990,269.9446,90.1237,0,U,57897,999,9117,.10482E-3,.1213E-4,0
STARLINK-30479,2023-146H,2025-05-08T11:20:36.366432,15.02506057,.0001541,43.0025,171.8130,272.0620,88.0046,0,U,57898,999,9115,-.24446E-3,-.3502E-4,0
STARLINK-30481,2023-146J,2025-05-08T11:15:46.792512,15.02537011,.0001497,43.0022,171.7862,273.0445,87.0226,0,U,57899,999,9115,.14609E-3,.177E-4,0
STARLINK-30457,2023-146K,2025-05-08T14:04:51.267072,15.02537839,.0001474,43.0025,170.9510,267.1167,92.9506,0,U,57900,999,9096,.59338E-4,.598E-5,0
STARLINK-30472,2023-146L,2025-05-09T04:00:50.089824,15.02536372,.0001232,43.0019,167.5592,276.5762,83.4940,0,U,57901,999,9121,.10001E-3,.1148E-4,0
STARLINK-30462,2023-146M,2025-05-08T11:06:11.176704,15.02534045,.0001262,43.0021,171.7364,269.1797,90.8900,0,U,57902,999,9105,-.30115E-5,-.244E-5,0
STARLINK-30449,2023-146N,2025-05-08T07:11:34.591488,15.02540274,.0001223,43.0015,172.2295,272.0651,88.0051,0,U,57903,999,9007,.36991E-4,.296E-5,0
STARLINK-30466,2023-146P,2025-05-08T14:12:50.913216,15.02538458,.0001201,43.0021,170.9899,257.2438,102.8270,0,U,57904,999,9107,-.83437E-4,-.1331E-4,0
STARLINK-30451,2023-146Q,2025-05-08T13:29:41.578656,15.02533996,.0001315,43.0022,170.7623,274.8078,85.2615,0,U,57905,999,9111,.38154E-4,.312E-5,0
STARLINK-30428,2023-146R,2025-05-08T14:08:02.993856,15.02537417,.0001146,43.0027,170.9654,269.2815,90.7896,0,U,57906,999,9090,-.27137E-4,-.57E-5,0
STARLINK-30482,2023-146S,2025-05-08T10:51:46.590912,15.02557008,.0001351,43.0019,171.6635,279.7438,80.3252,0,U,57907,999,9010,.19423E-4,.59E-6,0
STARLINK-30464,2023-146T,2025-05-09T04:15:13.018464,15.02541503,.000143,43.0038,167.6399,276.0272,84.0407,0,U,57908,999,9115,.11243E-3,.1316E-4,0
STARLINK-30463,2023-146U,2025-05-08T10:47:00.470400,15.02534577,.0001201,43.0020,171.6372,279.7308,80.3399,0,U,57909,999,9009,.81447E-4,.897E-5,0
STARLINK-30453,2023-146V,2025-05-09T02:34:41.652192,15.02538606,.0001614,43.0022,167.9761,277.3210,82.7449,0,U,57910,999,9115,.11809E-3,.1392E-4,0
STARLINK-30478,2023-146W,2025-05-08T10:16:38.504352,15.02531281,.000101,43.0030,171.4773,280.0263,80.0465,0,U,57911,999,9115,.83274E-4,.921E-5,0
STARLINK-30477,2023-146X,2025-05-08T13:44:04.631712,15.02535894,.0001424,43.0028,170.8400,267.2530,92.8149,0,U,57912,999,9117,.55855E-4,.551E-5,0
STARLINK-30450,2023-147A,2025-05-08T10:13:12.894816,15.02534758,.0001642,43.0046,185.1793,270.5419,89.5235,0,U,57913,999,9066,.49167E-4,.46E-5,0
STARLINK-30483,2023-147B,2025-05-08T22:44:37.560480,15.25909939,.0001072,43.0054,99.7097,255.8662,104.2070,0,U,57914,999,9163,.6556E-4,.1458E-4,0
STARLINK-30454,2023-147C,2025-05-08T11:39:21.452544,15.02543330,.0001104,43.0018,184.7649,269.4205,90.6511,0,U,57915,999,9067,-.16392E-4,-.425E-5,0
STARLINK-30501,2023-147E,2025-05-08T11:34:33.515904,15.02544200,.0001228,43.0017,184.7406,269.2155,90.8546,0,U,57917,999,9070,-.83519E-4,-.1332E-4,0
STARLINK-30499,2023-147F,2025-05-08T09:53:22.199136,15.27575281,.000118,43.0009,104.2614,272.8690,87.2027,0,U,57918,999,9164,.22581E-4,.359E-5,0
STARLINK-30496,2023-147G,2025-05-08T14:36:25.631136,15.02532292,.0001087,43.0003,183.9695,262.3560,97.7158,0,U,57919,999,9072,.26594E-4,.156E-5,0
STARLINK-30485,2023-147H,2025-05-08T14:31:37.945920,15.02539632,.0001316,43.0012,183.9457,270.9715,89.0977,0,U,57920,999,9072,.53588E-5,-.131E-5,0
STARLINK-30492,2023-147J,2025-05-09T03:12:39.257280,15.02543648,.0001688,43.0023,181.0323,273.4049,86.6600,0,U,57921,999,9069,.23041E-3,.2911E-4,0
STARLINK-30440,2023-147L,2025-05-09T03:07:51.623040,15.02541409,.0001529,43.0019,181.0048,272.5455,87.5212,0,U,57923,999,9080,.17199E-3,.2121E-4,0
STARLINK-30487,2023-147M,2025-05-09T04:14:48.008256,15.02642239,.0001786,43.0025,180.4797,245.2275,114.8382,0,U,57924,999,9082,-.16979E-2,-.23129E-3,0
