STARLINK-30473          
1 57893U 23146C   25128.46595484  .00001107  00000+0  96967-4 0  9990
2 57893  43.0015 171.7080 0001246 318.0749  41.9998 15.02537789 91159
STARLINK-30443          
1 57894U 23146D   25128.41613317  .00001650  00000+0  13723-3 0  9993
2 57894  43.0021 172.2473 0001198 268.7293  91.3412 15.02521602 91146
STARLINK-30467          
1 57895U 23146E   25128.41946322 -.00000532  00000+0 -24344-4 0  9991
2 57895  43.0019 172.2713 0001249 268.9224  91.1475 15.02534286 91143
STARLINK-30469          
1 57896U 23146F   25129.14405541  .00001182  00000+0  10259-3 0  9995
2 57896  43.0023 168.2502 0001435 283.9630  76.1053 15.02535646 91208
STARLINK-30474          
1 57897U 23146G   25128.60668440  .00001213  00000+0  10482-3 0  9998
2 57897  43.0026 171.0990 0001387 269.9446  90.1237 15.02536228 91173
STARLINK-30479          
1 57898U 23146H   25128.47264313 -.00003502  00000+0 -24446-3 0  9995
2 57898  43.0025 171.8130 0001541 272.0620  88.0046 15.02506057 91157
STARLINK-30481          
1 57899U 23146J   25128.46929158  .00001770  00000+0  14609-3 0  9993
2 57899  43.0022 171.7862 0001497 273.0445  87.0226 15.02537011 91155
STARLINK-30457          
1 57900U 23146K   25128.58670448  .00000598  00000+0  59338-4 0  9990
2 57900  43.0025 170.9510 0001474 267.1167  92.9506 15.02537839 90964
STARLINK-30472          
1 57901U 23146L   25129.16724641  .00001148  00000+0  10001-3 0  9996
2 57901  43.0019 167.5592 0001232 276.5762  83.4940 15.02536372 91214
STARLINK-30462          
1 57902U 23146M   25128.46262936 -.00000244  00000+0 -30115-5 0  9991
2 57902  43.0021 171.7364 0001262 269.1797  90.8900 15.02534045 91056
STARLINK-30449          
1 57903U 23146N   25128.29970592  .00000296  00000+0  36991-4 0  9999
2 57903  43.0015 172.2295 0001223 272.0651  88.0051 15.02540274 90076
STARLINK-30466          
1 57904U 23146P   25128.59225594 -.00001331  00000+0 -83437-4 0  9998
2 57904  43.0021 170.9899 0001201 257.2438 102.8270 15.02538458 91073
STARLINK-30451          
1 57905U 23146Q   25128.56228679  .00000312  00000+0  38154-4 0  9995
2 57905  43.0022 170.7623 0001315 274.8078  85.2615 15.02533996 91113
STARLINK-30428          
1 57906U 23146R   25128.58892354 -.00000570  00000+0 -27137-4 0  9992
2 57906  43.0027 170.9654 0001146 269.2815  90.7896 15.02537417 90904
STARLINK-30482          
1 57907U 23146S   25128.45262258  .00000059  00000+0  19423-4 0  9992
2 57907  43.0019 171.6635 0001351 279.7438  80.3252 15.02557008 90109
STARLINK-30464          
1 57908U 23146T   25129.17723401  .00001316  00000+0  11243-3 0  9993
2 57908  43.0038 167.6399 0001430 276.0272  84.0407 15.02541503 91159
STARLINK-30463          
1 57909U 23146U   25128.44931100  .00000897  00000+0  81447-4 0  9997
2 57909  43.0020 171.6372 0001201 279.7308  80.3399 15.02534577 90097
STARLINK-30453          
1 57910U 23146V   25129.10742653  .00001392  00000+0  11809-3 0  9991
2 57910  43.0022 167.9761 0001614 277.3210  82.7449 15.02538606 91152
STARLINK-30478          
1 57911U 23146W   25128.42822343  .00000921  00000+0  83274-4 0  9994
2 57911  43.0030 171.4773 0001010 280.0263  80.0465 15.02531281 91155
STARLINK-30477          
1 57912U 23146X   25128.57227583  .00000551  00000+0  55855-4 0  9999
2 57912  43.0028 170.8400 0001424 267.2530  92.8149 15.02535894 91172
STARLINK-30450          
1 57913U 23147A   25128.42584369  .00000460  00000+0  49167-4 0  9991
2 57913  43.0046 185.1793 0001642 270.5419  89.5235 15.02534758 90662
STARLINK-30483          
1 57914U 23147B   25128.94765695  .00001458  00000+0  65560-4 0  9995
2 57914  43.0054  99.7097 0001072 255.8662 104.2070 15.25909939 91634
STARLINK-30454          
1 57915U 23147C   25128.48566496 -.00000425  00000+0 -16392-4 0  9997
2 57915  43.0018 184.7649 0001104 269.4205  90.6511 15.02543330 90678
STARLINK-30501          
1 57917U 23147E   25128.48233236 -.00001332  00000+0 -83519-4 0  9995
2 57917  43.0017 184.7406 0001228 269.2155  90.8546 15.02544200 90700
STARLINK-30499          
1 57918U 23147F   25128.41206249  .00000359  00000+0  22581-4 0  9991
2 57918  43.0009 104.2614 0001180 272.8690  87.2027 15.27575281 91649
STARLINK-30496          
1 57919U 23147G   25128.60862999  .00000156  00000+0  26594-4 0  9996
2 57919  43.0003 183.9695 0001087 262.3560  97.7158 15.02532292 90720
STARLINK-30485          
1 57920U 23147H   25128.60530030 -.00000131  00000+0  53588-5 0  9994
2 57920  43.0012 183.9457 0001316 270.9715  89.0977 15.02539632 90728
STARLINK-30492          
1 57921U 23147J   25129.13378770  .00002911  00000+0  23041-3 0  9991
2 57921  43.0023 181.0323 0001688 273.4049  86.6600 15.02543648 90696
STARLINK-30440          
1 57923U 23147L   25129.13045860  .00002121  00000+0  17199-3 0  9994
2 57923  43.0019 181.0048 0001529 272.5455  87.5212 15.02541409 90807
STARLINK-30487          
1 57924U 23147M   25129.17694454 -.00023129  00000+0 -16979-2 0  9995
2 57924  43.0025 180.4797 0001786 245.2275 114.8382 15.02642239 90828
